{
  "norad_id": 59917,
  "name": "2024-105A",
  "history": [
    {
      "epoch": "2026-04-10T06:19:05.576736Z",
      "apogee_km": 526.179507565611,
      "perigee_km": 505.3042907486515,
      "latitude_deg": -9.955913104340078e-06,
      "longitude_deg": -177.81894549928683,
      "height_km": 521.11252825027,
      "semi_major_axis_km": 6893.878899157131,
      "eccentricity": 0.00151404,
      "inclination_deg": 97.5882,
      "raan_deg": 115.4539,
      "arg_perigee_deg": 102.8786,
      "mean_anomaly_deg": 257.4139,
      "mean_motion_rev_day": 15.16726542
    },
    {
      "epoch": "2026-04-11T20:19:07.574016Z",
      "apogee_km": 526.1654095593731,
      "perigee_km": 505.2715124281931,
      "latitude_deg": 5.4667652742736825e-05,
      "longitude_deg": -27.803306467153153,
      "height_km": 520.2405365479216,
      "semi_major_axis_km": 6893.855460993783,
      "eccentricity": 0.0015154,
      "inclination_deg": 97.588,
      "raan_deg": 117.0385,
      "arg_perigee_deg": 98.1382,
      "mean_anomaly_deg": 262.1571,
      "mean_motion_rev_day": 15.16734277
    },
    {
      "epoch": "2026-04-13T07:09:08.788032Z",
      "apogee_km": 526.13306425469,
      "perigee_km": 505.27354438507336,
      "latitude_deg": -1.625500913555671e-05,
      "longitude_deg": 169.71347593879273,
      "height_km": 519.4150079910974,
      "semi_major_axis_km": 6893.840304319881,
      "eccentricity": 0.00151291,
      "inclination_deg": 97.5876,
      "raan_deg": 118.4909,
      "arg_perigee_deg": 93.6776,
      "mean_anomaly_deg": 266.6187,
      "mean_motion_rev_day": 15.16739279
    },
    {
      "epoch": "2026-04-14T21:09:09.720000Z",
      "apogee_km": 526.1022488028484,
      "perigee_km": 505.2732467099768,
      "latitude_deg": 6.296707603719947e-05,
      "longitude_deg": -40.26643119075239,
      "height_km": 518.4966921026597,
      "semi_major_axis_km": 6893.824747756412,
      "eccentricity": 0.0015107,
      "inclination_deg": 97.5873,
      "raan_deg": 120.0755,
      "arg_perigee_deg": 88.715,
      "mean_anomaly_deg": 271.5814,
      "mean_motion_rev_day": 15.16744413
    },
    {
      "epoch": "2026-04-15T20:54:09.957312Z",
      "apogee_km": 526.0840629872409,
      "perigee_km": 505.2688825875075,
      "latitude_deg": -5.5684098063904766e-05,
      "longitude_deg": -36.502482899060844,
      "height_km": 517.9393742461724,
      "semi_major_axis_km": 6893.813472787374,
      "eccentricity": 0.0015097,
      "inclination_deg": 97.5872,
      "raan_deg": 121.0658,
      "arg_perigee_deg": 85.7036,
      "mean_anomaly_deg": 274.5921,
      "mean_motion_rev_day": 15.16748134
    },
    {
      "epoch": "2026-04-16T20:39:10.026144Z",
      "apogee_km": 526.0615543607992,
      "perigee_km": 505.2643386821328,
      "latitude_deg": -4.6332080901716576e-05,
      "longitude_deg": -32.73774767926076,
      "height_km": 517.3744078482657,
      "semi_major_axis_km": 6893.799946521465,
      "eccentricity": 0.0015084,
      "inclination_deg": 97.5872,
      "raan_deg": 122.0562,
      "arg_perigee_deg": 82.6441,
      "mean_anomaly_deg": 277.6505,
      "mean_motion_rev_day": 15.16752598
    },
    {
      "epoch": "2026-04-17T23:34:09.859584Z",
      "apogee_km": 526.0336987510173,
      "perigee_km": 505.2627239092799,
      "latitude_deg": 4.942852477932882e-05,
      "longitude_deg": -76.47019128434351,
      "height_km": 516.7402621608129,
      "semi_major_axis_km": 6893.785211330148,
      "eccentricity": 0.0015065,
      "inclination_deg": 97.5871,
      "raan_deg": 123.1785,
      "arg_perigee_deg": 79.1711,
      "mean_anomaly_deg": 281.1217,
      "mean_motion_rev_day": 15.16757461
    },
    {
      "epoch": "2026-04-18T20:09:09.507168Z",
      "apogee_km": 526.0097579085659,
      "perigee_km": 505.2650120293165,
      "latitude_deg": 1.80645080706819e-05,
      "longitude_deg": -25.20574215809941,
      "height_km": 516.274344672072,
      "semi_major_axis_km": 6893.7743849689405,
      "eccentricity": 0.0015046,
      "inclination_deg": 97.587,
      "raan_deg": 124.0368,
      "arg_perigee_deg": 76.583,
      "mean_anomaly_deg": 283.7079,
      "mean_motion_rev_day": 15.16761034
    },
    {
      "epoch": "2026-04-19T19:54:08.966880Z",
      "apogee_km": 525.9815357581783,
      "perigee_km": 505.2699150260096,
      "latitude_deg": 3.118395514840737e-05,
      "longitude_deg": -21.43866541781148,
      "height_km": 515.7627714799605,
      "semi_major_axis_km": 6893.762725392094,
      "eccentricity": 0.0015022,
      "inclination_deg": 97.5866,
      "raan_deg": 125.027,
      "arg_perigee_deg": 73.6953,
      "mean_anomaly_deg": 286.5931,
      "mean_motion_rev_day": 15.16764882
    },
    {
      "epoch": "2026-04-20T14:54:08.288064Z",
      "apogee_km": 525.9558194040337,
      "perigee_km": 505.2771785334571,
      "latitude_deg": 1.2951709038627402e-05,
      "longitude_deg": 53.576269280054106,
      "height_km": 515.3393171561921,
      "semi_major_axis_km": 6893.753498968745,
      "eccentricity": 0.00149981,
      "inclination_deg": 97.5867,
      "raan_deg": 125.8194,
      "arg_perigee_deg": 71.2572,
      "mean_anomaly_deg": 289.0287,
      "mean_motion_rev_day": 15.16767927
    },
    {
      "epoch": "2026-04-21T20:59:06.791424Z",
      "apogee_km": 525.9005517055148,
      "perigee_km": 505.29380150480665,
      "latitude_deg": -5.00246493017564e-05,
      "longitude_deg": -37.64845103139943,
      "height_km": 514.7016473847433,
      "semi_major_axis_km": 6893.73417660516,
      "eccentricity": 0.0014946,
      "inclination_deg": 97.5868,
      "raan_deg": 127.0739,
      "arg_perigee_deg": 67.5067,
      "mean_anomaly_deg": 292.7746,
      "mean_motion_rev_day": 15.16774304
    },
    {
      "epoch": "2026-04-22T20:44:06.398880Z",
      "apogee_km": 526.0995573966502,
      "perigee_km": 505.31048739391554,
      "latitude_deg": -7.951971082429437e-05,
      "longitude_deg": -33.88178731607365,
      "height_km": 514.2076936569285,
      "semi_major_axis_km": 6893.842022395283,
      "eccentricity": 0.0015078,
      "inclination_deg": 97.5868,
      "raan_deg": 128.0643,
      "arg_perigee_deg": 64.0759,
      "mean_anomaly_deg": 296.2025,
      "mean_motion_rev_day": 15.16738712
    },
    {
      "epoch": "2026-04-23T14:09:06.738912Z",
      "apogee_km": 526.032570102193,
      "perigee_km": 505.3414467233424,
      "latitude_deg": -1.6531370173392232e-05,
      "longitude_deg": 64.87780519958804,
      "height_km": 513.8672522665718,
      "semi_major_axis_km": 6893.824008412767,
      "eccentricity": 0.0015007,
      "inclination_deg": 97.5869,
      "raan_deg": 128.7906,
      "arg_perigee_deg": 61.9326,
      "mean_anomaly_deg": 298.3422,
      "mean_motion_rev_day": 15.16744657
    },
    {
      "epoch": "2026-04-24T20:14:06.787104Z",
      "apogee_km": 525.9556089885864,
      "perigee_km": 505.36108476932077,
      "latitude_deg": -3.342709164245659e-05,
      "longitude_deg": -26.353774000832516,
      "height_km": 513.263209695174,
      "semi_major_axis_km": 6893.795346878954,
      "eccentricity": 0.0014937,
      "inclination_deg": 97.5868,
      "raan_deg": 130.0447,
      "arg_perigee_deg": 58.0781,
      "mean_anomaly_deg": 302.1902,
      "mean_motion_rev_day": 15.16754116
    },
    {
      "epoch": "2026-04-25T19:59:06.288288Z",
      "apogee_km": 525.8859341534162,
      "perigee_km": 505.3811031227797,
      "latitude_deg": 7.653071647258457e-06,
      "longitude_deg": -22.586973382785594,
      "height_km": 512.7915505969829,
      "semi_major_axis_km": 6893.770518638098,
      "eccentricity": 0.0014872,
      "inclination_deg": 97.5866,
      "raan_deg": 131.0348,
      "arg_perigee_deg": 54.9138,
      "mean_anomaly_deg": 305.3487,
      "mean_motion_rev_day": 15.1676231
    },
    {
      "epoch": "2026-04-26T22:54:05.109120Z",
      "apogee_km": 525.7916851523923,
      "perigee_km": 505.4154425433935,
      "latitude_deg": -8.738774292323073e-06,
      "longitude_deg": -66.3151722598138,
      "height_km": 512.2952437625285,
      "semi_major_axis_km": 6893.740563847893,
      "eccentricity": 0.00147788,
      "inclination_deg": 97.5863,
      "raan_deg": 132.1571,
      "arg_perigee_deg": 51.3623,
      "mean_anomaly_deg": 308.893,
      "mean_motion_rev_day": 15.16772196
    },
    {
      "epoch": "2026-04-27T19:29:03.837408Z",
      "apogee_km": 525.731238977557,
      "perigee_km": 505.43337185468863,
      "latitude_deg": -5.993571373215322e-05,
      "longitude_deg": -15.047078941239413,
      "height_km": 511.9319356537502,
      "semi_major_axis_km": 6893.719305416123,
      "eccentricity": 0.0014722,
      "inclination_deg": 97.5861,
      "raan_deg": 133.0152,
      "arg_perigee_deg": 48.6505,
      "mean_anomaly_deg": 311.5991,
      "mean_motion_rev_day": 15.16779212
    },
    {
      "epoch": "2026-04-28T20:49:01.836768Z",
      "apogee_km": 525.6378450971197,
      "perigee_km": 505.47654705128025,
      "latitude_deg": 7.030540514573189e-05,
      "longitude_deg": -35.02303962938561,
      "height_km": 511.5238093842355,
      "semi_major_axis_km": 6893.6941960742,
      "eccentricity": 0.0014623,
      "inclination_deg": 97.5857,
      "raan_deg": 134.0713,
      "arg_perigee_deg": 45.3073,
      "mean_anomaly_deg": 314.9349,
      "mean_motion_rev_day": 15.16787499
    },
    {
      "epoch": "2026-04-29T20:33:59.472576Z",
      "apogee_km": 525.5581651428201,
      "perigee_km": 505.50173052479295,
      "latitude_deg": 4.8448902177239166e-05,
      "longitude_deg": -31.24843649302105,
      "height_km": 511.1470339699077,
      "semi_major_axis_km": 6893.666947833806,
      "eccentricity": 0.0014547,
      "inclination_deg": 97.5855,
      "raan_deg": 135.0614,
      "arg_perigee_deg": 42.0967,
      "mean_anomaly_deg": 318.1381,
      "mean_motion_rev_day": 15.16796492
    }
  ]
}